{
    "type": "FeatureCollection",
    "features": [
        {
            "type": "Feature",
            "geometry": {
                "type": "Polygon",
                "coordinates": [
                    [
                        [
                            103.847974,
                            1.297099
                        ],
                        [
                            103.848244,
                            1.296773
                        ],
                        [
                            103.84821,
                            1.296746
                        ],
                        [
                            103.848152,
                            1.296697
                        ],
                        [
                            103.847963,
                            1.29693
                        ],
                        [
                            103.847826,
                            1.29682
                        ],
                        [
                            103.847883,
                            1.296749
                        ],
                        [
                            103.847852,
                            1.296724
                        ],
                        [
                            103.847788,
                            1.296672
                        ],
                        [
                            103.847875,
                            1.296564
                        ],
                        [
                            103.847942,
                            1.296618
                        ],
                        [
                            103.847971,
                            1.296641
                        ],
                        [
                            103.848009,
                            1.296594
                        ],
                        [
                            103.848167,
                            1.296399
                        ],
                        [
                            103.848201,
                            1.296427
                        ],
                        [
                            103.848402,
                            1.29618
                        ],
                        [
                            103.848399,
                            1.296155
                        ],
                        [
                            103.848406,
                            1.296113
                        ],
                        [
                            103.84843,
                            1.296075
                        ],
                        [
                            103.84847,
                            1.296047
                        ],
                        [
                            103.848516,
                            1.296039
                        ],
                        [
                            103.848558,
                            1.296048
                        ],
                        [
                            103.848591,
                            1.29607
                        ],
                        [
                            103.848618,
                            1.296108
                        ],
                        [
                            103.848627,
                            1.296155
                        ],
                        [
                            103.848621,
                            1.29619
                        ],
                        [
                            103.848605,
                            1.29622
                        ],
                        [
                            103.848645,
                            1.296253
                        ],
                        [
                            103.848664,
                            1.296269
                        ],
                        [
                            103.848935,
                            1.295942
                        ],
                        [
                            103.849036,
                            1.296025
                        ],
                        [
                            103.848969,
                            1.296106
                        ],
                        [
                            103.848959,
                            1.296098
                        ],
                        [
                            103.848759,
                            1.29634
                        ],
                        [
                            103.84877,
                            1.296349
                        ],
                        [
                            103.848701,
                            1.296433
                        ],
                        [
                            103.84869,
                            1.296424
                        ],
                        [
                            103.8486,
                            1.296532
                        ],
                        [
                            103.848573,
                            1.296565
                        ],
                        [
                            103.848647,
                            1.296626
                        ],
                        [
                            103.848683,
                            1.296582
                        ],
                        [
                            103.848717,
                            1.29661
                        ],
                        [
                            103.848795,
                            1.296515
                        ],
                        [
                            103.848786,
                            1.296508
                        ],
                        [
                            103.848857,
                            1.296422
                        ],
                        [
                            103.848962,
                            1.296509
                        ],
                        [
                            103.84889,
                            1.296595
                        ],
                        [
                            103.84888,
                            1.296587
                        ],
                        [
                            103.848804,
                            1.296679
                        ],
                        [
                            103.848836,
                            1.296705
                        ],
                        [
                            103.848814,
                            1.296731
                        ],
                        [
                            103.84886,
                            1.29677
                        ],
                        [
                            103.848818,
                            1.296821
                        ],
                        [
                            103.848775,
                            1.296872
                        ],
                        [
                            103.848729,
                            1.296834
                        ],
                        [
                            103.848709,
                            1.296859
                        ],
                        [
                            103.848676,
                            1.296832
                        ],
                        [
                            103.848597,
                            1.296928
                        ],
                        [
                            103.848607,
                            1.296936
                        ],
                        [
                            103.848539,
                            1.297018
                        ],
                        [
                            103.848435,
                            1.296932
                        ],
                        [
                            103.848502,
                            1.29685
                        ],
                        [
                            103.848512,
                            1.296858
                        ],
                        [
                            103.848592,
                            1.296762
                        ],
                        [
                            103.848557,
                            1.296734
                        ],
                        [
                            103.848595,
                            1.296688
                        ],
                        [
                            103.84852,
                            1.296626
                        ],
                        [
                            103.848333,
                            1.296853
                        ],
                        [
                            103.848267,
                            1.296932
                        ],
                        [
                            103.848317,
                            1.296974
                        ],
                        [
                            103.848251,
                            1.297054
                        ],
                        [
                            103.848201,
                            1.297013
                        ],
                        [
                            103.848136,
                            1.297092
                        ],
                        [
                            103.848146,
                            1.297099
                        ],
                        [
                            103.848076,
                            1.297183
                        ],
                        [
                            103.847974,
                            1.297099
                        ]
                    ]
                ]
            },
            "properties": {
                "name": "Building 0"
            }
        }
    ]
}